*******************************************************************************
Ephemeris / WWW_USER Mon Jul 15 19:09:07 2024 Pasadena, USA      / Horizons    
*******************************************************************************
Target body name: (2017 SN16)                     {source: JPL#20}
Center body name: Earth (399)                     {source: DE441}
Center-site name: Gemini South Obs., Cerro Pachon
*******************************************************************************
Start time      : A.D. 2018-Oct-04 22:54:00.0000 UT      
Stop  time      : A.D. 2018-Oct-05 10:08:00.0000 UT      
Step-size       : 1 minutes
*******************************************************************************
Target pole/equ : undefined
Target radii    : undefined                                                    
Center geodetic : 289.2634, -30.2406227, 2.71233  {E-lon(deg),Lat(deg),Alt(km)}
Center cylindric: 289.2634,5517.21435,-3194.81213 {E-lon(deg),Dxy(km),Dz(km)}
Center pole/equ : ITRF93                          {East-longitude positive}
Center radii    : 6378.137, 6378.137, 6356.752 km {Equator_a, b, pole_c}       
Target primary  : Sun
Vis. interferer : MOON (R_eq= 1737.400) km        {source: DE441}
Rel. light bend : Sun                             {source: DE441}
Rel. lght bnd GM: 1.3271E+11 km^3/s^2                                          
Small-body perts: Yes                             {source: SB441-N16}
Atmos refraction: NO (AIRLESS)
RA format       : HMS
Time format     : CAL 
Calendar mode   : Mixed Julian/Gregorian
RTS-only print  : NO       
EOP file        : eop.240715.p241008                                           
EOP coverage    : DATA-BASED 1962-JAN-20 TO 2024-JUL-15. PREDICTS-> 2024-OCT-07
Units conversion: 1 au= 149597870.700 km, c= 299792.458 km/s, 1 day= 86400.0 s 
Table cut-offs 1: Elevation (-90.0deg=NO ),Airmass (>38.000=NO), Daylight (YES)
Table cut-offs 2: Solar elongation (  0.0,180.0=NO ),Local Hour Angle( 0.0=NO )
Table cut-offs 3: RA/DEC angular rate (     0.0=NO )                           
*******************************************************************************
Initial IAU76/J2000 heliocentric ecliptic osculating elements (au, days, deg.):
  EPOCH=  2458305.5 ! 2018-Jul-06.00 (TDB)         Residual RMS= .23751        
   EC= .1454884975659386   QR= .8682464985612274   TP= 2458145.5722438502      
   OM= 2.759719470837934   W=  137.1017088998531   IN= 13.38264682844635       
  Equivalent ICRF heliocentric cartesian coordinates (au, au/d):
   X= 5.756755401261899E-01  Y=-7.953424559592890E-01  Z=-6.031561894536019E-01
  VX= 1.332076113263395E-02 VY= 5.454663564585547E-03 VZ= 3.896229736425836E-03
Asteroid physical parameters (km, seconds, rotational period in hours):        
   GM= n.a.                RAD= n.a.               ROTPER= n.a.                
   H= 23.34                G= .150                 B-V= n.a.                   
                           ALBEDO= n.a.            STYP= n.a.                  
*******************************************************************************
 Date__(UT)__HR:MN     R.A._________(ICRF)_________DEC
******************************************************
$$SOE
 2018-Oct-04 22:54 C   22 16 57.384170 +00 55 58.38462
 2018-Oct-04 22:55 C   22 16 57.130806 +00 56 01.21147
 2018-Oct-04 22:56 C   22 16 56.877388 +00 56 04.03828
 2018-Oct-04 22:57 C   22 16 56.623918 +00 56 06.86505
 2018-Oct-04 22:58 C   22 16 56.370394 +00 56 09.69177
 2018-Oct-04 22:59 C   22 16 56.116818 +00 56 12.51844
 2018-Oct-04 23:00 C   22 16 55.863189 +00 56 15.34507
 2018-Oct-04 23:01 C   22 16 55.609508 +00 56 18.17166
 2018-Oct-04 23:02 C   22 16 55.355775 +00 56 20.99820
 2018-Oct-04 23:03 C   22 16 55.101990 +00 56 23.82470
 2018-Oct-04 23:04 C   22 16 54.848154 +00 56 26.65115
 2018-Oct-04 23:05 C   22 16 54.594266 +00 56 29.47756
 2018-Oct-04 23:06 C   22 16 54.340327 +00 56 32.30392
 2018-Oct-04 23:07 C   22 16 54.086338 +00 56 35.13024
 2018-Oct-04 23:08 C   22 16 53.832298 +00 56 37.95651
 2018-Oct-04 23:09 C   22 16 53.578208 +00 56 40.78274
 2018-Oct-04 23:10 C   22 16 53.324067 +00 56 43.60892
 2018-Oct-04 23:11 N   22 16 53.069877 +00 56 46.43505
 2018-Oct-04 23:12 N   22 16 52.815638 +00 56 49.26114
 2018-Oct-04 23:13 N   22 16 52.561349 +00 56 52.08719
 2018-Oct-04 23:14 N   22 16 52.307011 +00 56 54.91318
 2018-Oct-04 23:15 N   22 16 52.052624 +00 56 57.73913
 2018-Oct-04 23:16 N   22 16 51.798189 +00 57 00.56504
 2018-Oct-04 23:17 N   22 16 51.543705 +00 57 03.39090
 2018-Oct-04 23:18 N   22 16 51.289174 +00 57 06.21671
 2018-Oct-04 23:19 N   22 16 51.034595 +00 57 09.04248
 2018-Oct-04 23:20 N   22 16 50.779968 +00 57 11.86820
 2018-Oct-04 23:21 N   22 16 50.525295 +00 57 14.69387
 2018-Oct-04 23:22 N   22 16 50.270574 +00 57 17.51949
 2018-Oct-04 23:23 N   22 16 50.015806 +00 57 20.34507
 2018-Oct-04 23:24 N   22 16 49.760993 +00 57 23.17060
 2018-Oct-04 23:25 N   22 16 49.506133 +00 57 25.99609
 2018-Oct-04 23:26 N   22 16 49.251227 +00 57 28.82153
 2018-Oct-04 23:27 N   22 16 48.996275 +00 57 31.64692
 2018-Oct-04 23:28 N   22 16 48.741278 +00 57 34.47226
 2018-Oct-04 23:29 N   22 16 48.486237 +00 57 37.29755
 2018-Oct-04 23:30 N   22 16 48.231150 +00 57 40.12280
 2018-Oct-04 23:31 N   22 16 47.976019 +00 57 42.94800
 2018-Oct-04 23:32 N   22 16 47.720843 +00 57 45.77315
 2018-Oct-04 23:33 N   22 16 47.465624 +00 57 48.59825
 2018-Oct-04 23:34 N   22 16 47.210361 +00 57 51.42331
 2018-Oct-04 23:35 N   22 16 46.955054 +00 57 54.24832
 2018-Oct-04 23:36 N   22 16 46.699705 +00 57 57.07328
 2018-Oct-04 23:37 N   22 16 46.444312 +00 57 59.89819
 2018-Oct-04 23:38 N   22 16 46.188877 +00 58 02.72305
 2018-Oct-04 23:39 A   22 16 45.933399 +00 58 05.54786
 2018-Oct-04 23:40 A   22 16 45.677880 +00 58 08.37263
 2018-Oct-04 23:41 A   22 16 45.422319 +00 58 11.19734
 2018-Oct-04 23:42 A   22 16 45.166716 +00 58 14.02201
 2018-Oct-04 23:43 A   22 16 44.911072 +00 58 16.84663
 2018-Oct-04 23:44 A   22 16 44.655387 +00 58 19.67119
 2018-Oct-04 23:45 A   22 16 44.399662 +00 58 22.49571
 2018-Oct-04 23:46 A   22 16 44.143896 +00 58 25.32018
 2018-Oct-04 23:47 A   22 16 43.888090 +00 58 28.14460
 2018-Oct-04 23:48 A   22 16 43.632245 +00 58 30.96897
 2018-Oct-04 23:49 A   22 16 43.376360 +00 58 33.79329
 2018-Oct-04 23:50 A   22 16 43.120436 +00 58 36.61756
 2018-Oct-04 23:51 A   22 16 42.864473 +00 58 39.44179
 2018-Oct-04 23:52 A   22 16 42.608471 +00 58 42.26596
 2018-Oct-04 23:53 A   22 16 42.352431 +00 58 45.09008
 2018-Oct-04 23:54 A   22 16 42.096353 +00 58 47.91415
 2018-Oct-04 23:55 A   22 16 41.840237 +00 58 50.73817
 2018-Oct-04 23:56 A   22 16 41.584084 +00 58 53.56214
 2018-Oct-04 23:57 A   22 16 41.327894 +00 58 56.38606
 2018-Oct-04 23:58 A   22 16 41.071667 +00 58 59.20993
 2018-Oct-04 23:59 A   22 16 40.815403 +00 59 02.03375
 2018-Oct-05 00:00 A   22 16 40.559104 +00 59 04.85752
 2018-Oct-05 00:01 A   22 16 40.302768 +00 59 07.68123
 2018-Oct-05 00:02 A   22 16 40.046397 +00 59 10.50490
 2018-Oct-05 00:03 A   22 16 39.789990 +00 59 13.32851
 2018-Oct-05 00:04 A   22 16 39.533548 +00 59 16.15208
 2018-Oct-05 00:05 A   22 16 39.277072 +00 59 18.97559
 2018-Oct-05 00:06 A   22 16 39.020561 +00 59 21.79905
 2018-Oct-05 00:07 A   22 16 38.764016 +00 59 24.62246
 2018-Oct-05 00:08     22 16 38.507437 +00 59 27.44581
 2018-Oct-05 00:09     22 16 38.250825 +00 59 30.26912
 2018-Oct-05 00:10     22 16 37.994179 +00 59 33.09237
 2018-Oct-05 00:11     22 16 37.737501 +00 59 35.91558
 2018-Oct-05 00:12     22 16 37.480790 +00 59 38.73873
 2018-Oct-05 00:13     22 16 37.224046 +00 59 41.56183
 2018-Oct-05 00:14     22 16 36.967271 +00 59 44.38487
 2018-Oct-05 00:15     22 16 36.710464 +00 59 47.20786
 2018-Oct-05 00:16     22 16 36.453626 +00 59 50.03081
 2018-Oct-05 00:17     22 16 36.196757 +00 59 52.85369
 2018-Oct-05 00:18     22 16 35.939857 +00 59 55.67653
 2018-Oct-05 00:19     22 16 35.682926 +00 59 58.49931
 2018-Oct-05 00:20     22 16 35.425965 +01 00 01.32204
 2018-Oct-05 00:21     22 16 35.168975 +01 00 04.14472
 2018-Oct-05 00:22     22 16 34.911955 +01 00 06.96735
 2018-Oct-05 00:23     22 16 34.654906 +01 00 09.78992
 2018-Oct-05 00:24     22 16 34.397828 +01 00 12.61244
 2018-Oct-05 00:25     22 16 34.140722 +01 00 15.43490
 2018-Oct-05 00:26     22 16 33.883587 +01 00 18.25731
 2018-Oct-05 00:27     22 16 33.626425 +01 00 21.07967
 2018-Oct-05 00:28     22 16 33.369234 +01 00 23.90198
 2018-Oct-05 00:29     22 16 33.112017 +01 00 26.72423
 2018-Oct-05 00:30     22 16 32.854773 +01 00 29.54643
 2018-Oct-05 00:31     22 16 32.597502 +01 00 32.36857
 2018-Oct-05 00:32     22 16 32.340205 +01 00 35.19066
 2018-Oct-05 00:33     22 16 32.082881 +01 00 38.01270
 2018-Oct-05 00:34     22 16 31.825532 +01 00 40.83468
 2018-Oct-05 00:35     22 16 31.568158 +01 00 43.65660
 2018-Oct-05 00:36     22 16 31.310759 +01 00 46.47848
 2018-Oct-05 00:37     22 16 31.053335 +01 00 49.30030
 2018-Oct-05 00:38     22 16 30.795887 +01 00 52.12206
 2018-Oct-05 00:39     22 16 30.538415 +01 00 54.94377
 2018-Oct-05 00:40     22 16 30.280918 +01 00 57.76543
 2018-Oct-05 00:41     22 16 30.023399 +01 01 00.58703
 2018-Oct-05 00:42     22 16 29.765857 +01 01 03.40857
 2018-Oct-05 00:43     22 16 29.508291 +01 01 06.23006
 2018-Oct-05 00:44     22 16 29.250704 +01 01 09.05150
 2018-Oct-05 00:45     22 16 28.993094 +01 01 11.87288
 2018-Oct-05 00:46     22 16 28.735463 +01 01 14.69420
 2018-Oct-05 00:47     22 16 28.477810 +01 01 17.51548
 2018-Oct-05 00:48     22 16 28.220136 +01 01 20.33669
 2018-Oct-05 00:49     22 16 27.962441 +01 01 23.15785
 2018-Oct-05 00:50     22 16 27.704726 +01 01 25.97895
 2018-Oct-05 00:51     22 16 27.446991 +01 01 28.80000
 2018-Oct-05 00:52     22 16 27.189236 +01 01 31.62099
 2018-Oct-05 00:53     22 16 26.931461 +01 01 34.44193
 2018-Oct-05 00:54     22 16 26.673668 +01 01 37.26281
 2018-Oct-05 00:55     22 16 26.415856 +01 01 40.08364
 2018-Oct-05 00:56     22 16 26.158025 +01 01 42.90440
